[{"OBJECT_NAME":"STARLINK-4784","OBJECT_ID":"2022-114X","EPOCH":"2026-03-09T20:36:31.634208","MEAN_MOTION":15.08839081,"ECCENTRICITY":0.00015241,"INCLINATION":53.2195,"RA_OF_ASC_NODE":293.6076,"ARG_OF_PERICENTER":82.9007,"MEAN_ANOMALY":277.2158,"EPHEMERIS_TYPE":0,"CLASSIFICATION_TYPE":"U","NORAD_CAT_ID":53839,"ELEMENT_SET_NO":999,"REV_AT_EPOCH":19299,"BSTAR":-6.769948e-6,"MEAN_MOTION_DOT":-3.96e-6,"MEAN_MOTION_DDOT":0},{"OBJECT_NAME":"KUIPER-00148","OBJECT_ID":"2025-217H","EPOCH":"2026-03-09T06:36:19.446048","MEAN_MOTION":15.09536529,"ECCENTRICITY":0.00081087,"INCLINATION":51.8794,"RA_OF_ASC_NODE":26.5769,"ARG_OF_PERICENTER":351.8096,"MEAN_ANOMALY":8.2745,"EPHEMERIS_TYPE":0,"CLASSIFICATION_TYPE":"U","NORAD_CAT_ID":65769,"ELEMENT_SET_NO":999,"REV_AT_EPOCH":2507,"BSTAR":0.00098730243,"MEAN_MOTION_DOT":0.00015783,"MEAN_MOTION_DDOT":0}]
